     2.10           G: GLONASS NAV DATA                     RINEX VERSION / TYPE
teqc  2015Jun23                         20211216 01:25:44UTCPGM / RUN BY / DATE
Linux 2.4.21-27.ELsmp|Opteron|gcc -static|Linux x86_64|=+   COMMENT
  2021    11    22   -4.656612873077D-10                    CORR TO SYSTEM TIME
                                                            END OF HEADER
 3 21 11 23  9 15  0.0 4.695542156696D-05 0.000000000000D+00 3.240000000000D+04
   -6.589113281250D+03 3.308677673340D-02 1.862645149231D-09 0.000000000000D+00
    2.445574414062D+04 4.074983596802D-01 9.313225746155D-10 5.000000000000D+00
    2.786121093750D+03-3.548580169678D+00-1.862645149231D-09 0.000000000000D+00
 4 21 11 23  9 15  0.0 1.155789941549D-04 1.818989403546D-12 3.240000000000D+04
    2.863342285156D+03-6.552848815918D-01 0.000000000000D+00 0.000000000000D+00
    1.800745458984D+04 2.354537963867D+00 0.000000000000D+00 6.000000000000D+00
    1.785072265625D+04-2.273683547974D+00-2.793967723846D-09 0.000000000000D+00
 2 21 11 23  9 15  0.0 5.010133609176D-04 0.000000000000D+00 3.240000000000D+04
   -1.267844921875D+04 7.385158538818D-01 1.862645149231D-09 0.000000000000D+00
    1.701731396484D+04-1.794474601746D+00 1.862645149231D-09-4.000000000000D+00
   -1.406922265625D+04-2.835249900818D+00-0.000000000000D+00 0.000000000000D+00
14 21 11 23  9 15  0.0 7.130671292543D-05 0.000000000000D+00 3.240000000000D+04
    3.570926757812D+03-1.644634246826D+00 0.000000000000D+00 0.000000000000D+00
    1.718789062500D+04-1.927248001099D+00 0.000000000000D+00-7.000000000000D+00
    1.852438818359D+04 2.105458259583D+00-2.793967723846D-09 0.000000000000D+00
15 21 11 23  9 15  0.0 1.000296324492D-04-0.000000000000D+00 3.240000000000D+04
    1.555919628906D+04-2.279844284058D-01 0.000000000000D+00 0.000000000000D+00
    1.986825341797D+04-4.788579940796D-01 1.862645149231D-09 0.000000000000D+00
    3.732410644531D+03 3.518981933594D+00-2.793967723846D-09 0.000000000000D+00
24 21 11 23  9 15  0.0 6.814859807491D-05 1.818989403546D-12 3.240000000000D+04
   -2.271902001953D+04-1.068105697632D+00 1.862645149231D-09 0.000000000000D+00
    8.251729492188D+03 3.814182281494D-01 0.000000000000D+00 2.000000000000D+00
   -8.161202148438D+03 3.347819328308D+00 0.000000000000D+00 0.000000000000D+00
17 21 11 23  9 45  0.0 4.773959517479D-04 2.728484105319D-12 3.420000000000D+04
   -1.319329443359D+04-2.222676277161D+00 1.862645149231D-09 0.000000000000D+00
    1.301592871094D+04 9.312400817871D-01 9.313225746155D-10 4.000000000000D+00
   -1.753581640625D+04 2.357305526733D+00 0.000000000000D+00 0.000000000000D+00
 3 21 11 23  9 45  0.0 4.695542156696D-05 0.000000000000D+00 3.420000000000D+04
   -6.302196289062D+03 2.458286285400D-01 1.862645149231D-09 0.000000000000D+00
    2.441210302734D+04-4.652595520020D-01 1.862645149231D-09 5.000000000000D+00
   -3.626589843750D+03-3.530200004578D+00-1.862645149231D-09 0.000000000000D+00
 4 21 11 23  9 45  0.0 1.155827194452D-04 1.818989403546D-12 3.420000000000D+04
    2.123689941406D+03-1.871538162231D-01 9.313225746155D-10 0.000000000000D+00
    2.177586914062D+04 1.790783882141D+00 0.000000000000D+00 6.000000000000D+00
    1.312143701172D+04-2.947058677673D+00-2.793967723846D-09 0.000000000000D+00
 2 21 11 23  9 45  0.0 5.010142922401D-04 0.000000000000D+00 3.420000000000D+04
   -1.145735693359D+04 5.809202194214D-01 1.862645149231D-09 0.000000000000D+00
    1.313789990234D+04-2.487081527710D+00 1.862645149231D-09-4.000000000000D+00
   -1.855949169922D+04-2.121392250061D+00 0.000000000000D+00 0.000000000000D+00
14 21 11 23  9 45  0.0 7.130857557058D-05 0.000000000000D+00 3.420000000000D+04
    7.391796875000D+01-2.221673011780D+00 0.000000000000D+00 0.000000000000D+00
    1.367092480469D+04-1.935429573059D+00-9.313225746155D-10-7.000000000000D+00
    2.155036230469D+04 1.234950065613D+00-2.793967723846D-09 0.000000000000D+00
15 21 11 23  9 45  0.0 1.000296324492D-04-0.000000000000D+00 3.420000000000D+04
    1.452806982422D+04-9.336986541748D-01 0.000000000000D+00 0.000000000000D+00
    1.852350585938D+04-9.766855239868D-01 9.313225746155D-10 0.000000000000D+00
    9.840517089844D+03 3.223782539368D+00-2.793967723846D-09 0.000000000000D+00
24 21 11 23  9 45  0.0 6.815139204264D-05 1.818989403546D-12 3.420000000000D+04
   -2.385313134766D+04-1.911621093750D-01 9.313225746155D-10 0.000000000000D+00
    8.865278808594D+03 2.584085464478D-01-9.313225746155D-10 2.000000000000D+00
   -1.897591796875D+03 3.566559791565D+00 0.000000000000D+00 0.000000000000D+00
18 21 11 23  9 45  0.0 9.814277291298D-05 9.094947017729D-13 3.597000000000D+04
    4.156204101562D+03-3.026041030884D+00 1.862645149231D-09 0.000000000000D+00
    9.602079101562D+03 1.019220352173D+00 2.793967723846D-09-3.000000000000D+00
   -2.324383789062D+04-1.159124374390D-01 0.000000000000D+00 0.000000000000D+00
17 21 11 23 10 15  0.0 4.774024710059D-04 2.728484105319D-12 3.600000000000D+04
   -1.653129736328D+04-1.466664314270D+00 1.862645149231D-09 0.000000000000D+00
    1.474910449219D+04 9.516735076904D-01 0.000000000000D+00 4.000000000000D+00
   -1.267020507812D+04 3.013783454895D+00 0.000000000000D+00 0.000000000000D+00
 3 21 11 23 10 15  0.0 4.695542156696D-05 0.000000000000D+00 3.600000000000D+04
   -5.851891113281D+03 2.138433456421D-01 1.862645149231D-09 0.000000000000D+00
    2.278296142578D+04-1.334388732910D+00 9.313225746155D-10 5.000000000000D+00
   -9.757608398438D+03-3.237565040588D+00-9.313225746155D-10 0.000000000000D+00
 4 21 11 23 10 15  0.0 1.155855134130D-04 1.818989403546D-12 3.600000000000D+04
    2.089693359375D+03 1.155595779419D-01 1.862645149231D-09 0.000000000000D+00
    2.432705273438D+04 1.016122817993D+00 9.313225746155D-10 6.000000000000D+00
    7.378093750000D+03-3.393051147461D+00-2.793967723846D-09 0.000000000000D+00
 2 21 11 23 10 15  0.0 5.010152235627D-04 0.000000000000D+00 3.600000000000D+04
   -1.070163427734D+04 2.336435317993D-01 1.862645149231D-09 0.000000000000D+00
    8.195685058594D+03-2.961016654968D+00 9.313225746155D-10-4.000000000000D+00
   -2.160726074219D+04-1.243013381958D+00 9.313225746155D-10 0.000000000000D+00
15 21 11 23 10 15  0.0 1.000296324492D-04-0.000000000000D+00 3.600000000000D+04
    1.217287597656D+04-1.680716514587D+00 0.000000000000D+00 0.000000000000D+00
    1.650394287109D+04-1.223070144653D+00 0.000000000000D+00 0.000000000000D+00
    1.518835009766D+04 2.679766654968D+00-2.793967723846D-09 0.000000000000D+00
18 21 11 23 10 15  0.0 9.814463555813D-05 9.094947017729D-13 3.600000000000D+04
   -1.087042968750D+03-2.752454757690D+00 1.862645149231D-09 0.000000000000D+00
    1.182346435547D+04 1.424399375916D+00 1.862645149231D-09-3.000000000000D+00
   -2.254929541016D+04 8.827247619629D-01 0.000000000000D+00 0.000000000000D+00
24 21 11 23 10 15  0.0 6.815511733294D-05 1.818989403546D-12 3.600000000000D+04
   -2.343937500000D+04 6.325302124023D-01 0.000000000000D+00 0.000000000000D+00
    9.037154785156D+03-1.045112609863D-01-1.862645149231D-09 2.000000000000D+00
    4.512652343750D+03 3.509750366211D+00 0.000000000000D+00 0.000000000000D+00
14 21 11 23 10 15  0.0 7.130950689316D-05 0.000000000000D+00 3.603000000000D+04
   -4.327672363281D+03-2.633781433105D+00-0.000000000000D+00 0.000000000000D+00
    1.036974267578D+04-1.695953369141D+00-1.862645149231D-09-7.000000000000D+00
    2.291286035156D+04 2.691087722778D-01-1.862645149231D-09 0.000000000000D+00
 5 21 11 23 10 15  0.0 8.296221494675D-05 9.094947017729D-13 3.699000000000D+04
    8.854218750000D+03-8.042907714844D-02 0.000000000000D+00 0.000000000000D+00
    1.242534375000D+04 2.799492835999D+00-0.000000000000D+00 1.000000000000D+00
    2.043605810547D+04-1.670013427734D+00-2.793967723846D-09 0.000000000000D+00
17 21 11 23 10 45  0.0 4.774080589414D-04 2.728484105319D-12 3.780000000000D+04
   -1.843793554688D+04-6.519250869751D-01 9.313225746155D-10 0.000000000000D+00
    1.628230615234D+04 7.075967788696D-01-0.000000000000D+00 4.000000000000D+00
   -6.826385742188D+03 3.437218666077D+00 0.000000000000D+00 0.000000000000D+00
 3 21 11 23 10 45  0.0 4.695635288954D-05 0.000000000000D+00 3.780000000000D+04
   -5.669221191406D+03-4.481124877930D-02 2.793967723846D-09 0.000000000000D+00
    1.968027685547D+04-2.084160804749D+00 9.313225746155D-10 5.000000000000D+00
   -1.513037988281D+04-2.693195343018D+00-0.000000000000D+00 0.000000000000D+00
 4 21 11 23 10 45  0.0 1.155892387033D-04 1.818989403546D-12 3.780000000000D+04
    2.402983398438D+03 1.918354034424D-01 1.862645149231D-09 0.000000000000D+00
    2.536614355469D+04 1.291131973267D-01 9.313225746155D-10 6.000000000000D+00
    1.064185058594D+03-3.576841354370D+00-1.862645149231D-09 0.000000000000D+00
 5 21 11 23 10 45  0.0 8.296314626932D-05 9.094947017729D-13 3.780000000000D+04
    9.065391601562D+03 2.906017303467D-01 0.000000000000D+00 0.000000000000D+00
    1.702587548828D+04 2.269983291626D+00 0.000000000000D+00 1.000000000000D+00
    1.667837695312D+04-2.478130340576D+00-2.793967723846D-09 0.000000000000D+00
15 21 11 23 10 45  0.0 1.000296324492D-04-0.000000000000D+00 3.780000000000D+04
    8.520589355469D+03-2.356159210205D+00 0.000000000000D+00 0.000000000000D+00
    1.427869335938D+04-1.207242965698D+00-0.000000000000D+00 0.000000000000D+00
    1.936342333984D+04 1.929194450378D+00-2.793967723846D-09 0.000000000000D+00
18 21 11 23 10 45  0.0 9.814649820328D-05 9.094947017729D-13 3.780000000000D+04
   -5.602448242188D+03-2.229818344116D+00 2.793967723846D-09 0.000000000000D+00
    1.461404052734D+04 1.637503623962D+00 9.313225746155D-10-3.000000000000D+00
   -2.010681787109D+04 1.813551902771D+00 0.000000000000D+00 0.000000000000D+00
24 21 11 23 10 45  0.0 6.815791130066D-05 1.818989403546D-12 3.780000000000D+04
   -2.167243994141D+04 1.296470642090D+00-0.000000000000D+00 0.000000000000D+00
    8.374402832031D+03-6.572704315186D-01-2.793967723846D-09 2.000000000000D+00
    1.057459326172D+04 3.182115554810D+00 0.000000000000D+00 0.000000000000D+00
